[{"OBJECT_NAME":"OBJECT J","OBJECT_ID":"2023-085J","EPOCH":"2026-03-09T22:47:59.920512","MEAN_MOTION":15.31507187,"ECCENTRICITY":0.00067028,"INCLINATION":97.4828,"RA_OF_ASC_NODE":180.1819,"ARG_OF_PERICENTER":41.7877,"MEAN_ANOMALY":318.3875,"EPHEMERIS_TYPE":0,"CLASSIFICATION_TYPE":"U","NORAD_CAT_ID":57012,"ELEMENT_SET_NO":999,"REV_AT_EPOCH":15156,"BSTAR":0.00064525349,"MEAN_MOTION_DOT":0.00019595,"MEAN_MOTION_DDOT":0},{"OBJECT_NAME":"STARLINK-32333","OBJECT_ID":"2024-191F","EPOCH":"2026-03-09T08:00:01.000224","MEAN_MOTION":15.2757601,"ECCENTRICITY":0.00014201,"INCLINATION":43.0011,"RA_OF_ASC_NODE":160.1789,"ARG_OF_PERICENTER":267.7493,"MEAN_ANOMALY":310.2219,"EPHEMERIS_TYPE":0,"CLASSIFICATION_TYPE":"U","NORAD_CAT_ID":61626,"ELEMENT_SET_NO":999,"REV_AT_EPOCH":581,"BSTAR":0.00013879137,"MEAN_MOTION_DOT":3.559e-5,"MEAN_MOTION_DDOT":0}]
